     2              NAVIGATION DATA                         RINEX VERSION / TYPE
CCRINEXN V1.6.0 UX  CDDIS               24-NOV-16 15:33     PGM / RUN BY / DATE 
IGS BROADCAST EPHEMERIS FILE                                COMMENT             
    0.1118D-07 -0.1490D-07 -0.5960D-07  0.1192D-06          ION ALPHA           
    0.9830D+05 -0.1147D+06 -0.1966D+06  0.7209D+06          ION BETA            
    0.931322574615D-09 0.177635683940D-14   405504     1924 DELTA-UTC: A0,A1,T,W
    17                                                      LEAP SECONDS        
                                                            END OF HEADER       
 2 16 11 23  4  0  0.0 0.521400012076D-03-0.568434188608D-11 0.000000000000D+00
    0.780000000000D+02-0.364687500000D+02 0.508414034628D-08-0.163433704420D+01
   -0.178441405296D-05 0.161620138679D-01 0.500306487083D-05 0.515367428589D+04
    0.273600000000D+06 0.376254320145D-06 0.816489406267D+00 0.409781932831D-07
    0.944533112007D+00 0.272531250000D+03-0.206412298783D+01-0.826498712703D-08
   -0.542879755978D-10 0.100000000000D+01 0.192400000000D+04 0.000000000000D+00
    0.290000000000D+01 0.000000000000D+00-0.200234353542D-07 0.780000000000D+02
    0.266400000000D+06 0.400000000000D+01 0.000000000000D+00 0.000000000000D+00
 3 16 11 23  4  0  0.0-0.995914451778D-04-0.181898940355D-11 0.000000000000D+00
    0.310000000000D+02-0.259687500000D+02 0.436161025000D-08 0.281209041577D+01
   -0.131875276566D-05 0.375780044123D-03 0.989250838757D-05 0.515357880783D+04
    0.273600000000D+06 0.260770320892D-07 0.190809390939D+01 0.242143869400D-07
    0.959199682060D+00 0.188031250000D+03 0.845609873194D+00-0.793783064251D-08
   -0.850035407387D-10 0.100000000000D+01 0.192400000000D+04 0.000000000000D+00
    0.200000000000D+01 0.000000000000D+00 0.186264514923D-08 0.310000000000D+02
    0.266400000000D+06 0.400000000000D+01 0.000000000000D+00 0.000000000000D+00
 4 16 11 23  4  0  0.0 0.184415839613D-04 0.295585778076D-11 0.000000000000D+00
    0.960000000000D+02 0.572812500000D+02 0.453554616087D-08 0.144418260300D+01
    0.289268791676D-05 0.831906427629D-02 0.694580376148D-05 0.515374054527D+04
    0.273600000000D+06 0.249594449997D-06 0.306753414476D+01-0.596046447754D-07
    0.966352933073D+00 0.247375000000D+03-0.951595310999D+00-0.803319188947D-08
    0.214294637590D-09 0.100000000000D+01 0.192400000000D+04 0.000000000000D+00
    0.570000000000D+01 0.100000000000D+01-0.419095158577D-08 0.960000000000D+02
    0.266550000000D+06 0.000000000000D+00 0.000000000000D+00 0.000000000000D+00
 5 16 11 23  4  0  0.0-0.764075666666D-04 0.227373675443D-11 0.000000000000D+00
    0.460000000000D+02-0.229375000000D+02 0.466233706220D-08 0.833126642543D+00
   -0.105425715446D-05 0.489874090999D-02 0.103656202555D-04 0.515364117050D+04
    0.273600000000D+06-0.838190317154D-07 0.189377759119D+01 0.819563865662D-07
    0.946205376589D+00 0.171312500000D+03 0.556054146664D+00-0.808640825993D-08
   -0.151434879299D-09 0.100000000000D+01 0.192400000000D+04 0.000000000000D+00
    0.200000000000D+01 0.000000000000D+00-0.107102096081D-07 0.460000000000D+02
    0.266400000000D+06 0.400000000000D+01 0.000000000000D+00 0.000000000000D+00
 6 16 11 23  4  0  0.0 0.276642851532D-03 0.500222085975D-11 0.000000000000D+00
    0.880000000000D+02-0.405312500000D+02 0.465876548485D-08-0.172806873638D+01
   -0.216253101826D-05 0.326539622620D-03 0.572390854359D-05 0.515356256485D+04
    0.273600000000D+06 0.931322574616D-08 0.857503714632D+00 0.223517417908D-07
    0.965459962025D+00 0.273312500000D+03-0.146189300379D+01-0.819426989566D-08
   -0.110361739867D-09 0.100000000000D+01 0.192400000000D+04 0.000000000000D+00
    0.200000000000D+01 0.000000000000D+00 0.419095158577D-08 0.880000000000D+02
    0.266400000000D+06 0.400000000000D+01 0.000000000000D+00 0.000000000000D+00
 7 16 11 23  4  0  0.0 0.408496707678D-03-0.329691829393D-11 0.000000000000D+00
    0.560000000000D+02 0.506250000000D+01 0.467162316328D-08-0.274574238637D+01
    0.152736902237D-06 0.100504967850D-01 0.502541661263D-05 0.515362153626D+04
    0.273600000000D+06-0.577419996262D-07-0.225914878677D+01-0.225380063057D-06
    0.964413321675D+00 0.287562500000D+03-0.261470319933D+01-0.814248202420D-08
   -0.903609067516D-10 0.100000000000D+01 0.192400000000D+04 0.000000000000D+00
    0.200000000000D+01 0.000000000000D+00-0.111758708954D-07 0.560000000000D+02
    0.266400000000D+06 0.400000000000D+01 0.000000000000D+00 0.000000000000D+00
 8 16 11 23  4  0  0.0-0.399113632739D-04-0.136424205266D-11 0.000000000000D+00
    0.540000000000D+02 0.162812500000D+02 0.440411202037D-08 0.788487461633D+00
    0.698491930962D-06 0.201656518038D-02 0.760890543461D-05 0.515378606033D+04
    0.273600000000D+06-0.260770320892D-07-0.195519914155D+00-0.540167093277D-07
    0.965356823375D+00 0.235968750000D+03-0.995659486106D+00-0.806319300721D-08
    0.188222125921D-09 0.100000000000D+01 0.192400000000D+04 0.000000000000D+00
    0.200000000000D+01 0.000000000000D+00 0.512227416039D-08 0.540000000000D+02
    0.273030000000D+06 0.400000000000D+01 0.000000000000D+00 0.000000000000D+00
 9 16 11 23  4  0  0.0 0.249880831689D-03 0.738964445190D-11 0.000000000000D+00
    0.840000000000D+02 0.648125000000D+02 0.465447959204D-08 0.242923173445D+00
    0.320561230183D-05 0.729987863451D-03 0.808760523796D-05 0.515374452972D+04
    0.273600000000D+06-0.186264514923D-08 0.294578780542D+01 0.223517417908D-07
    0.954566933567D+00 0.218218750000D+03 0.176095337784D+01-0.815605401810D-08
    0.222509268404D-09 0.100000000000D+01 0.192400000000D+04 0.000000000000D+00
    0.200000000000D+01 0.000000000000D+00 0.139698386192D-08 0.840000000000D+02
    0.266400000000D+06 0.400000000000D+01 0.000000000000D+00 0.000000000000D+00
10 16 11 23  4  0  0.0-0.115014612675D-03-0.113686837722D-11 0.000000000000D+00
    0.420000000000D+02-0.380312500000D+02 0.438268255632D-08 0.214780439185D+01
   -0.188499689102D-05 0.190886319615D-02 0.104047358036D-04 0.515368298531D+04
    0.273600000000D+06-0.335276126862D-07 0.190424130878D+01 0.745058059692D-08
    0.959401124416D+00 0.176468750000D+03-0.294530456700D+01-0.794533095493D-08
   -0.121433629627D-09 0.100000000000D+01 0.192400000000D+04 0.000000000000D+00
    0.200000000000D+01 0.000000000000D+00 0.232830643654D-08 0.420000000000D+02
    0.269850000000D+06 0.400000000000D+01 0.000000000000D+00 0.000000000000D+00
11 16 11 23  4  0  0.0-0.672156456858D-03-0.795807864051D-12 0.000000000000D+00
    0.750000000000D+02-0.618750000000D+01 0.597560623206D-08-0.267012229294D+01
   -0.214204192162D-06 0.167461143574D-01 0.407919287682D-05 0.515368759537D+04
    0.273600000000D+06 0.210478901863D-06 0.476313232449D+00 0.109896063805D-06
    0.898775606297D+00 0.264968750000D+03 0.160018228409D+01-0.862678817271D-08
    0.170721395354D-09 0.100000000000D+01 0.192400000000D+04 0.000000000000D+00
    0.400000000000D+01 0.000000000000D+00-0.121071934700D-07 0.750000000000D+02
    0.266400000000D+06 0.000000000000D+00 0.000000000000D+00 0.000000000000D+00
12 16 11 23  4  0  0.0 0.389506109059D-03 0.000000000000D+00 0.000000000000D+00
    0.280000000000D+02-0.984375000000D+01 0.371551190884D-08 0.294847207430D+01
   -0.637024641037D-06 0.609634001739D-02 0.967085361481D-05 0.515363094139D+04
    0.273600000000D+06-0.521540641785D-07-0.117860476064D+01-0.104308128357D-06
    0.989838902260D+00 0.204843750000D+03 0.780656055927D+00-0.759960226822D-08
   -0.159649507186D-09 0.100000000000D+01 0.192400000000D+04 0.000000000000D+00
    0.200000000000D+01 0.000000000000D+00-0.125728547573D-07 0.280000000000D+02
    0.266400000000D+06 0.400000000000D+01 0.000000000000D+00 0.000000000000D+00
13 16 11 23  4  0  0.0-0.563235953450D-04-0.204636307899D-11 0.000000000000D+00
    0.400000000000D+02 0.597500000000D+02 0.441268399598D-08-0.171407109147D+01
    0.319071114063D-05 0.402861181647D-02 0.731088221073D-05 0.515368761253D+04
    0.273600000000D+06-0.931322574616D-08 0.306915652822D+01 0.670552253723D-07
    0.970831482685D+00 0.245156250000D+03 0.189074707593D+01-0.803462008037D-08
    0.243224412833D-09 0.100000000000D+01 0.192400000000D+04 0.000000000000D+00
    0.200000000000D+01 0.000000000000D+00-0.111758708954D-07 0.400000000000D+02
    0.266400000000D+06 0.000000000000D+00 0.000000000000D+00 0.000000000000D+00
14 16 11 23  4  0  0.0-0.462788157165D-04-0.170530256582D-11 0.000000000000D+00
    0.580000000000D+02 0.600937500000D+02 0.461447792581D-08-0.382245692307D+00
    0.318139791489D-05 0.866559799761D-02 0.821053981781D-05 0.515360482979D+04
    0.273600000000D+06-0.856816768646D-07 0.303096382603D+01 0.745058059692D-07
    0.963324879902D+00 0.226281250000D+03-0.194527787544D+01-0.823462871963D-08
    0.273582824394D-09 0.100000000000D+01 0.192400000000D+04 0.000000000000D+00
    0.200000000000D+01 0.000000000000D+00-0.931322574616D-08 0.580000000000D+02
    0.266400000000D+06 0.400000000000D+01 0.000000000000D+00 0.000000000000D+00
15 16 11 23  4  0  0.0-0.335211399943D-03-0.125055521494D-11 0.000000000000D+00
    0.980000000000D+02 0.605312500000D+02 0.529807782906D-08-0.733851078929D+00
    0.328011810780D-05 0.883223512210D-02 0.783614814282D-05 0.515370395279D+04
    0.273600000000D+06 0.191852450371D-06 0.288882120780D+01 0.838190317154D-07
    0.930214072773D+00 0.209125000000D+03 0.534662678252D+00-0.853106963901D-08
    0.253581991279D-09 0.100000000000D+01 0.192400000000D+04 0.000000000000D+00
    0.200000000000D+01 0.000000000000D+00-0.107102096081D-07 0.980000000000D+02
    0.266400000000D+06 0.400000000000D+01 0.000000000000D+00 0.000000000000D+00
